{
  "norad_id": 66899,
  "name": "STARLINK-36064",
  "history": [
    {
      "epoch": "2026-03-28T20:05:41.546688",
      "apogee_km": 476.2254835863132,
      "perigee_km": 474.1453631643699,
      "latitude_deg": -9.374790522387562,
      "longitude_deg": -129.72050367994234,
      "semi_major_axis_km": 6853.322423375341,
      "eccentricity": 0.00015176,
      "inclination_deg": 53.1593,
      "raan_deg": 295.3742,
      "arg_perigee_deg": 95.6374,
      "mean_anomaly_deg": 264.48,
      "mean_motion_rev_day": 15.30209929
    }
  ]
}